STARLINK-30108          
1 56299U 23056P   26056.98609238  .00006079  00000+0  36126-3 0  9993
2 56299  42.9985 260.7912 0001191 283.6186  76.4527 15.11909161158473
STARLINK-30104          
1 56300U 23056Q   26057.02433779  .00000034  00000+0  17554-4 0  9997
2 56300  43.0027 273.2881 0001023 271.4607  88.6118 15.02535519158334
STARLINK-30101          
1 56301U 23056R   26057.25002315  .00047334  00000+0  27796-2 0  9992
2 56301  42.9995 272.2676 0002171 290.7166 117.2976 15.11002995  5774
STARLINK-30111          
1 56302U 23056S   26057.25002315  .00045672  00000+0  27087-2 0  9999
2 56302  42.9991 272.1197 0002006 300.6021 141.4604 15.10658095  5781
STARLINK-30099          
1 56304U 23056U   26057.25002315  .00042722  00000+0  26282-2 0  9990
2 56304  42.9997 272.1080 0001846 303.0162 139.7468 15.09357189  5780
STARLINK-30094          
1 56305U 23056V   26057.25002315  .00049327  00000+0  30064-2 0  9992
2 56305  42.9996 272.0655 0001620 312.5703 142.5095 15.09637447  5789
STARLINK-30112          
1 56306U 23056W   26057.25002315  .00046781  00000+0  27735-2 0  9995
2 56306  43.0001 272.1568 0002008 301.0909 126.0495 15.10661732  5827
STARLINK-6038           
1 56317U 23058A   26056.57126764  .00000506  00000+0  39293-4 0  9997
2 56317  97.6048  59.2779 0001821  79.8317 280.3115 15.05648202156021
STARLINK-5954           
1 56318U 23058B   26057.27462282  .00000843  00000+0  62615-4 0  9992
2 56318  97.6061  60.0344 0001846  95.9228 264.2209 15.05647055156134
STARLINK-6039           
1 56319U 23058C   26056.94070313  .00000689  00000+0  58199-4 0  9996
2 56319  97.6037  58.6468 0003862  54.5050 305.6534 15.01259742156018
STARLINK-5988           
1 56320U 23058D   26056.47993635  .00000978  00000+0  80670-4 0  9997
2 56320  97.6044  58.1817 0002690  72.6608 287.4910 15.01263587155958
STARLINK-5876           
1 56321U 23058E   26056.75403002  .00000950  00000+0  70014-4 0  9994
2 56321  97.6049  59.4956 0001898  80.6829 279.4613 15.05653666156053
STARLINK-6033           
1 56322U 23058F   26056.94440816  .00000538  00000+0  46388-4 0  9999
2 56322  97.6031  58.6405 0002904  73.8731 286.2813 15.01262267156013
STARLINK-6035           
1 56323U 23058G   26057.27026189  .00000353  00000+0  32003-4 0  9994
2 56323  97.6040  58.9779 0003124  64.7381 295.4167 15.01261524156059
STARLINK-6034           
1 56324U 23058H   26057.27185335  .00000671  00000+0  50721-4 0  9994
2 56324  97.6054  60.0365 0001891  89.1788 270.9655 15.05645988156134
STARLINK-5981           
1 56325U 23058J   26056.99623646 -.00000259  00000+0 -15610-4 0  9997
2 56325  97.6035  58.7263 0002852  78.6795 281.4750 15.01252862156374
STARLINK-5980           
1 56326U 23058K   26056.93909652  .00000422  00000+0  37430-4 0  9990
2 56326  97.6034  58.6497 0003661  54.1102 306.0462 15.01260220156014
STARLINK-5997           
1 56327U 23058L   26056.99093140  .00000300  00000+0  27870-4 0  9995
2 56327  97.6040  58.7320 0002546  85.3429 274.8087 15.01262004156373
STARLINK-5992           
1 56328U 23058M   26056.51036468  .00000494  00000+0  38450-4 0  9994
2 56328  97.6041  59.2053 0001720  85.9011 274.2412 15.05637188156368
STARLINK-5984           
1 56329U 23058N   26056.96171188 -.00000679  00000+0 -42855-4 0  9994
2 56329  97.6053  59.6813 0002468  74.4514 285.6985 15.05658192156438
STARLINK-5991           
1 56331U 23058Q   26057.25546270  .00000865  00000+0  71916-4 0  9993
2 56331  97.6041  58.9956 0001827  74.4988 285.6438 15.01251700156412
STARLINK-5093           
1 56332U 23058R   26057.26655477 -.00000121  00000+0 -48703-5 0  9991
2 56332  97.6038  58.9839 0002866  21.5287 338.6057 15.01260269156414
STARLINK-5553           
1 56333U 23058S   26057.25523524  .00000782  00000+0  58385-4 0  9995
2 56333  97.6041  59.9092 0002220  86.7465 273.4015 15.05650302156477
STARLINK-5548           
1 56334U 23058T   26057.26908494  .00005780  00000+0  40436-3 0  9990
2 56334  97.6051  60.0423 0002183  91.2342 268.9135 15.05656640156487
STARLINK-5559           
1 56335U 23058U   26056.95063597  .00001345  00000+0  97427-4 0  9998
2 56335  97.6044  59.6970 0002364  85.6537 274.4960 15.05650108156431
STARLINK-5562           
1 56336U 23058V   26056.72593214  .00000756  00000+0  63393-4 0  9998
2 56336  97.6041  58.4695 0002639  47.3141 312.8305 15.01269903156335
STARLINK-5561           
1 56337U 23058W   26056.98352681 -.00000180  00000+0 -94697-5 0  9993
2 56337  97.6039  58.7328 0001680  77.3921 282.7491 15.01258560156375
STARLINK-5554           
1 56338U 23058X   26056.98513203  .00000181  00000+0  18640-4 0  9995
2 56338  97.6041  58.7312 0001604  89.8886 270.2522 15.01255666156377
STARLINK-5552           
1 56339U 23058Y   26056.97772071  .00000145  00000+0  15786-4 0  9993
2 56339  97.6032  58.7380 0000914 170.1399 189.9844 15.01259645156373
STARLINK-5540           
1 56340U 23058Z   26056.98386110 -.00000561  00000+0 -34700-4 0  9992
2 56340  97.6040  59.6537 0001933  84.3139 275.8309 15.05644122156438
STARLINK-5543           
1 56341U 23058AA  26057.24803586 -.00000123  00000+0 -50138-5 0  9992
2 56341  97.6030  58.9966 0001092  96.1894 263.9455 15.01259568156400
STARLINK-5955           
1 56342U 23058AB  26056.95894452 -.00000185  00000+0 -86264-5 0  9999
2 56342  97.6054  59.6866 0001997  92.2495 267.8960 15.05646922156437
STARLINK-5976           
1 56343U 23058AC  26057.25246214 -.00000121  00000+0 -41368-5 0  9997
2 56343  97.6036  59.9141 0002358  87.0227 273.1269 15.05646323156475
STARLINK-5974           
1 56344U 23058AD  26056.94786521  .00000849  00000+0  63041-4 0  9999
2 56344  97.6070  59.7016 0001841  87.3343 272.8095 15.05649058156438
STARLINK-5979           
1 56345U 23058AE  26056.57040251 -.00001849  00000+0 -13942-3 0  9999
2 56345  97.6049  58.3535 0003514 160.4191 199.7169 15.01259011156317
STARLINK-5837           
1 56346U 23058AF  26056.64077145  .00002397  00000+0  19116-3 0  9996
2 56346  97.6032  58.4160 0001803 173.2404 186.8845 15.01254891156323
STARLINK-5829           
1 56347U 23058AG  26056.89797311  .00006985  00000+0  48720-3 0  9998
2 56347  97.6058  59.6155 0002651 120.5030 239.6459 15.05698927156426
STARLINK-5888           
1 56348U 23058AH  26057.24272266  .00000095  00000+0  11959-4 0  9997
2 56348  97.6031  59.0010 0001448 168.2283 191.8975 15.01259750156418
STARLINK-5887           
1 56349U 23058AJ  26056.96290318  .00000751  00000+0  63000-4 0  9997
2 56349  97.6049  58.7587 0001807 122.3173 237.8227 15.01265220156376
STARLINK-5886           
1 56350U 23058AK  26057.28847813  .00001186  00000+0  86389-4 0  9991
2 56350  97.6048  60.0186 0002226 103.0145 257.1331 15.05639069156482
STARLINK-5891           
1 56351U 23058AL  26056.98109330 -.00000144  00000+0 -57833-5 0  9991
2 56351  97.6045  59.6585 0002147  83.6871 276.4600 15.05639863156438
STARLINK-5885           
1 56352U 23058AM  26056.96661377  .00000184  00000+0  18874-4 0  9997
2 56352  97.6054  58.7528 0003159 140.4857 219.6598 15.01260372156375
STARLINK-5874           
1 56353U 23058AN  26056.94809423  .00000717  00000+0  60389-4 0  9992
2 56353  97.6057  58.7926 0002066  89.3204 270.8257 15.01262540156374
STARLINK-5877           
1 56354U 23058AP  26056.93401345  .00000740  00000+0  55535-4 0  9996
2 56354  97.6046  59.5674 0002410  81.0124 279.1375 15.05646481156428
STARLINK-5533           
1 56355U 23058AQ  26056.95550385 -.00000693  00000+0 -49396-4 0  9995
2 56355  97.6059  58.7789 0001888  88.8211 271.3230 15.01261502156372
STARLINK-5535           
1 56356U 23058AR  26056.97832475  .00000196  00000+0  17819-4 0  9992
2 56356  97.6045  59.6633 0001794  87.2467 272.8965 15.05650546156430
STARLINK-5538           
1 56357U 23058AS  26056.94509957  .00000318  00000+0  26245-4 0  9995
2 56357  97.6051  59.7062 0001776  92.6925 267.4505 15.05645278156430
STARLINK-5482           
1 56358U 23058AT  26056.95923581  .00024174  00000+0  18860-2 0  9998
2 56358  97.6062  58.7688 0002031 111.7181 248.4260 15.01140903156379
STARLINK-5551           
1 56359U 23058AU  26056.95389547  .00000667  00000+0  56450-4 0  9997
2 56359  97.6080  58.7821 0001884  87.5892 272.5548 15.01260994156373
STARLINK-5549           
1 56360U 23058AV  26056.96725146 -.00000988  00000+0 -64226-4 0  9997
2 56360  97.6040  59.6788 0002406  76.6896 283.4599 15.05656593156439
STARLINK-5550           
1 56361U 23058AW  26057.28506263  .00000349  00000+0  31694-4 0  9993
2 56361  97.6048  59.1129 0001517 101.6374 258.5021 15.01258884156423
STARLINK-5972           
1 56362U 23058AX  26056.64047258  .00002162  00000+0  15392-3 0  9998
2 56362  97.6049  59.3434 0001745  88.4198 271.7228 15.05665456156387
STARLINK-6156           
1 56374U 23061A   26056.99921757  .00000805  00000+0  74670-4 0  9995
2 56374  43.0029 261.2049 0001308 263.6137  96.4556 15.02532706156096
STARLINK-6158           
1 56375U 23061B   26056.99366469 -.00000885  00000+0 -50453-4 0  9992
2 56375  43.0022 261.1621 0001161 273.0874  86.9835 15.02536073154997
STARLINK-6188           
1 56376U 23061C   26057.23849172  .00000120  00000+0  23965-4 0  9996
2 56376  43.0036 259.5601 0001095 269.4386  90.6330 15.02534016155038
STARLINK-6189           
1 56377U 23061D   26057.25624884  .00000863  00000+0  78930-4 0  9996
2 56377  43.0024 259.6921 0001232 266.0090  94.0612 15.02536813155038
STARLINK-6191           
1 56378U 23061E   26057.26068923  .00000315  00000+0  38405-4 0  9999
2 56378  43.0022 259.7198 0001093 270.2082  89.8635 15.02534811155030
STARLINK-6157           
1 56379U 23061F   26057.24515335  .00000090  00000+0  21759-4 0  9996
2 56379  43.0034 259.6100 0001348 269.5892  90.4796 15.02533585156134
STARLINK-6159           
1 56381U 23061H   26056.98590064  .00000433  00000+0  47129-4 0  9991
2 56381  43.0020 261.1031 0001187 269.7259  90.3447 15.02532404154996
STARLINK-6160           
1 56382U 23061J   26057.23960586 -.00000410  00000+0 -15318-4 0  9993
2 56382  43.0029 259.5622 0001291 267.9385  92.1310 15.02530221155039
